     3.04           N: GNSS NAV DATA    G: GPS              RINEX VERSION / TYPE
BNC 2.13.0          BKG Frankfurt       20210313 231526 UTC PGM / RUN BY / DATE
Concatenated RINEX files (50)                               COMMENT
                                                            END OF HEADER
G24 2021 03 13 16 00 00 1.127831637859e-06-5.684341886081e-13 0.000000000000e+00
     4.000000000000e+01 7.734375000000e+01 5.317007278904e-09-2.298515716257e+00
     3.840774297714e-06 1.094094431028e-02 7.448717951775e-06 5.153611040115e+03
     5.760000000000e+05 1.247972249985e-07 1.001430368772e+00-1.043081283569e-07
     9.353183314656e-01 2.218750000000e+02 7.348745876191e-01-8.358919778573e-09
     6.557416276642e-10 1.000000000000e+00 2.148000000000e+03 0.000000000000e+00
     2.000000000000e+00 0.000000000000e+00 2.793967723846e-09 4.000000000000e+01
     5.687400000000e+05 0.000000000000e+00                                      
G06 2021 03 13 16 00 00 6.798654794693e-07 1.932676241267e-12 0.000000000000e+00
     1.000000000000e+02 9.303125000000e+01 4.044454104957e-09-2.361415315661e+00
     4.867091774940e-06 2.325368346646e-03 6.731599569321e-06 5.153725149155e+03
     5.760000000000e+05 2.607703208923e-08-2.070953023186e+00 2.980232238770e-08
     9.828897005241e-01 2.631875000000e+02-1.035558395507e+00-7.946759694732e-09
     4.221604454901e-10 1.000000000000e+00 2.148000000000e+03 0.000000000000e+00
     2.000000000000e+00 0.000000000000e+00 3.725290298462e-09 1.000000000000e+02
     5.687400000000e+05 0.000000000000e+00                                      
G12 2021 03 13 16 00 00-1.339055597782e-05-5.343281372916e-12 0.000000000000e+00
     5.000000000000e+00-5.462500000000e+01 4.529474573189e-09 2.323328442424e+00
    -3.101304173470e-06 8.469454478472e-03 4.878267645836e-06 5.153775701523e+03
     5.760000000000e+05-3.539025783539e-08 2.188815850452e+00-1.341104507446e-07
     9.742275636199e-01 2.885000000000e+02 1.183297522417e+00-8.050335509324e-09
    -5.118070411925e-10 1.000000000000e+00 2.148000000000e+03 0.000000000000e+00
     2.000000000000e+00 0.000000000000e+00-1.257285475731e-08 5.000000000000e+00
     5.687400000000e+05 0.000000000000e+00                                      
G04 2021 03 13 16 00 00-1.859390176833e-04-2.273736754432e-12 0.000000000000e+00
     4.900000000000e+01-5.650000000000e+01 4.200174954146e-09-9.413256597293e-01
    -2.956017851830e-06 1.126837101765e-03 1.241080462933e-05 5.153780862808e+03
     5.760000000000e+05 2.980232238770e-08 5.622779619340e-02-5.587935447693e-09
     9.609124475290e-01 1.368437500000e+02-3.008125897364e+00-7.859613098719e-09
    -1.071473202588e-12 1.000000000000e+00 2.148000000000e+03 0.000000000000e+00
     2.000000000000e+00 0.000000000000e+00-4.190951585770e-09 4.900000000000e+01
     5.734200000000e+05 0.000000000000e+00                                      
G09 2021 03 13 16 00 00-3.307238221169e-04-3.183231456205e-12 0.000000000000e+00
     8.900000000000e+01-5.971875000000e+01 4.426255799892e-09-9.502801315532e-03
    -3.330409526825e-06 1.878165872768e-03 1.192279160023e-05 5.153559326172e+03
     5.760000000000e+05-2.048909664154e-08 6.021600492402e-03-1.862645149231e-08
     9.537330219857e-01 1.445937500000e+02 1.830817934607e+00-7.988904198498e-09
    -5.000208278745e-11 1.000000000000e+00 2.148000000000e+03 0.000000000000e+00
     2.000000000000e+00 0.000000000000e+00 1.396983861923e-09 8.900000000000e+01
     5.742900000000e+05 0.000000000000e+00                                      
G31 2021 03 13 17 59 44-1.053800806403e-04-2.273736754432e-12 0.000000000000e+00
     3.200000000000e+01 7.528125000000e+01 4.890203696613e-09-2.732487125571e+00
     3.781169652939e-06 9.950703359209e-03 7.197260856628e-06 5.153752702713e+03
     5.831840000000e+05-1.341104507446e-07 1.095179444814e+00-1.136213541031e-07
     9.561942763240e-01 2.417500000000e+02 2.526997496389e-01-8.166054434659e-09
     5.975248893100e-10 1.000000000000e+00 2.148000000000e+03 0.000000000000e+00
     2.000000000000e+00 0.000000000000e+00-1.303851604462e-08 3.200000000000e+01
     5.760000000000e+05 0.000000000000e+00                                      
G25 2021 03 13 18 00 00 9.812740609050e-05 7.503331289627e-12 0.000000000000e+00
     8.200000000000e+01-4.618750000000e+01 4.931991259838e-09 3.025396420636e+00
    -2.503395080566e-06 9.909008746035e-03 4.237517714500e-06 5.153652563095e+03
     5.832000000000e+05-3.166496753693e-08 2.116181414833e+00-2.365559339523e-07
     9.615209600074e-01 2.953750000000e+02 9.512416768855e-01-8.259629424856e-09
    -3.668010062352e-10 1.000000000000e+00 2.148000000000e+03 0.000000000000e+00
     2.000000000000e+00 0.000000000000e+00 5.587935447693e-09 8.200000000000e+01
     5.759400000000e+05 0.000000000000e+00                                      
G05 2021 03 13 18 00 00-3.611994907260e-05-1.023181539495e-12 0.000000000000e+00
     4.200000000000e+01-4.781250000000e+01 4.973064182678e-09 1.177931272651e+00
    -2.456828951836e-06 5.984966875985e-03 2.849847078323e-06 5.153830961227e+03
     5.832000000000e+05-5.215406417847e-08-1.059861797967e+00-2.235174179077e-08
     9.552376873582e-01 3.249687500000e+02 8.812622064396e-01-8.585357313962e-09
    -2.671539933718e-10 1.000000000000e+00 2.148000000000e+03 0.000000000000e+00
     2.000000000000e+00 0.000000000000e+00-1.117587089539e-08 4.200000000000e+01
     5.759400000000e+05 0.000000000000e+00                                      
G12 2021 03 13 18 00 00-1.342874020338e-05-5.343281372916e-12 0.000000000000e+00
     2.600000000000e+01-5.590625000000e+01 4.695909883168e-09-2.909755760081e+00
    -2.807006239891e-06 8.469788357615e-03 4.742294549942e-06 5.153775199890e+03
     5.832000000000e+05 2.123415470123e-07 2.188756596418e+00-1.452863216400e-07
     9.742239428977e-01 2.925312500000e+02 1.183315982980e+00-8.169268816971e-09
    -3.535861603510e-10 1.000000000000e+00 2.148000000000e+03 0.000000000000e+00
     2.000000000000e+00 0.000000000000e+00-1.257285475731e-08 2.600000000000e+01
     5.759400000000e+05 0.000000000000e+00                                      
G04 2021 03 13 18 00 00-1.859553158283e-04-2.273736754432e-12 0.000000000000e+00
     5.000000000000e+01-5.081250000000e+01 4.197317604593e-09 1.082884161100e-01
    -2.562999725342e-06 1.125729177147e-03 1.290254294872e-05 5.153778530121e+03
     5.832000000000e+05 2.980232238770e-08 5.617119881875e-02 3.725290298462e-09
     9.609124094932e-01 1.297812500000e+02-3.007626101642e+00-7.864255913148e-09
    -3.571577278719e-12 1.000000000000e+00 2.148000000000e+03 0.000000000000e+00
     2.000000000000e+00 0.000000000000e+00-4.190951585770e-09 5.000000000000e+01
     5.759400000000e+05 0.000000000000e+00                                      
G09 2021 03 13 18 00 00-3.307471051812e-04-3.183231456205e-12 0.000000000000e+00
     9.000000000000e+01-6.003125000000e+01 4.354109961469e-09 1.040938750729e+00
    -3.037974238396e-06 1.878431648947e-03 1.219473779202e-05 5.153559423447e+03
     5.832000000000e+05-2.793967723846e-08 5.964110737723e-03-1.490116119385e-08
     9.537325845732e-01 1.379375000000e+02 1.830625587212e+00-7.999618745202e-09
    -5.678808118192e-11 1.000000000000e+00 2.148000000000e+03 0.000000000000e+00
     2.000000000000e+00 0.000000000000e+00 1.396983861923e-09 9.000000000000e+01
     5.759400000000e+05 0.000000000000e+00                                      
G29 2021 03 13 18 00 00-3.111851401627e-04-6.821210263297e-12 0.000000000000e+00
     5.700000000000e+01-7.812500000000e-01 3.641937418308e-09 7.250548085288e-01
    -2.253800630569e-07 1.593507127836e-03 1.250207424164e-05 5.153678808212e+03
     5.832000000000e+05-1.862645149231e-09-3.046742115804e+00-9.313225746155e-09
     9.848000594125e-01 1.518750000000e+02 2.122739183579e+00-7.551386183025e-09
    -2.860833514529e-10 1.000000000000e+00 2.148000000000e+03 0.000000000000e+00
     2.000000000000e+00 0.000000000000e+00-1.024454832077e-08 5.700000000000e+01
     5.759400000000e+05 0.000000000000e+00                                      
G02 2021 03 13 18 00 00-5.857623182237e-04-3.751665644813e-12 0.000000000000e+00
     8.400000000000e+01 1.004062500000e+02 4.527688596404e-09-1.354648423619e+00
     5.513429641724e-06 2.033538848627e-02 7.659196853638e-06 5.153633167267e+03
     5.832000000000e+05-1.527369022369e-07-2.145021569101e+00 4.824250936508e-07
     9.622144914329e-01 2.392187500000e+02-1.534281345868e+00-8.291416799362e-09
     3.460858444360e-10 1.000000000000e+00 2.148000000000e+03 0.000000000000e+00
     2.000000000000e+00 0.000000000000e+00-1.769513000000e-08 8.400000000000e+01
     5.760300000000e+05 4.000000000000e+00                                      
G20 2021 03 13 19 59 44 5.242358893156e-04-3.410605131648e-13 0.000000000000e+00
     5.100000000000e+01-3.506250000000e+01 5.303792516287e-09-1.289104567602e+00
    -1.817941665649e-06 6.014631479047e-03 2.400949597359e-06 5.151687885284e+03
     5.903840000000e+05-6.519258022308e-08-1.167458659054e+00-1.285225152969e-07
     9.369923427721e-01 3.226875000000e+02 3.005708899223e+00-8.718934907392e-09
    -1.025042689617e-10 1.000000000000e+00 2.148000000000e+03 0.000000000000e+00
     2.000000000000e+00 0.000000000000e+00-8.381903171539e-09 5.100000000000e+01
     5.831100000000e+05 0.000000000000e+00                                      
